CZ-2C R/B               
1 54039U 22132E   25343.51700420  .00038510  00000+0  57764-3 0  9995
2 54039  97.2948 339.6541 0023455  67.6851 292.6887 15.54501286176334
GSLV R/B                
1 54149U 22138AN  25343.57841437  .00003672  00000+0  32232-3 0  9997
2 54149  87.3825 196.5329 0023936 115.9190 244.4512 14.96105407170458
XRISM                   
1 57800U 23137A   25343.46369165  .00007258  00000+0  42644-3 0  9997
2 57800  31.0005 146.6949 0007704 212.4251 147.5915 15.10287393124137
ACS3                    
1 59588U 24077B   25343.43170805  .00025410  00000+0  21821-1 0  9996
2 59588  97.2713 299.7763 0077942 345.8257  14.0717 13.85223484 81685
SZ-21 MODULE            
1 66515U 25246C   25343.47095092  .00032351  00000+0  35876-3 0  9990
2 66515  41.4772  35.9831 0006286 242.4237 117.5964 15.62240002  3935
