CCSDS_OMM_VERS = 2.0
CREATION_DATE  = 
ORIGINATOR     = 

OBJECT_NAME    = CZ-2C R/B
OBJECT_ID      = 2022-132E
CENTER_NAME    = EARTH
REF_FRAME      = TEME
TIME_SYSTEM    = UTC
MEAN_ELEMENT_THEORY = SGP/SGP4

EPOCH          = 2025-12-09T12:24:29.162880
MEAN_MOTION    = 15.54501286
ECCENTRICITY   = .00234558
INCLINATION    = 97.2948
RA_OF_ASC_NODE = 339.6541
ARG_OF_PERICENTER = 67.6851
MEAN_ANOMALY   = 292.6887

EPHEMERIS_TYPE = 0
CLASSIFICATION_TYPE = U
NORAD_CAT_ID   = 54039
ELEMENT_SET_NO = 999
REV_AT_EPOCH   = 17633
BSTAR          = .57763978E-3
MEAN_MOTION_DOT = .3851E-3
MEAN_MOTION_DDOT = 0

CCSDS_OMM_VERS = 2.0
CREATION_DATE  = 
ORIGINATOR     = 

OBJECT_NAME    = GSLV R/B
OBJECT_ID      = 2022-138AN
CENTER_NAME    = EARTH
REF_FRAME      = TEME
TIME_SYSTEM    = UTC
MEAN_ELEMENT_THEORY = SGP/SGP4

EPOCH          = 2025-12-09T13:52:55.001568
MEAN_MOTION    = 14.96105407
ECCENTRICITY   = .00239362
INCLINATION    = 87.3825
RA_OF_ASC_NODE = 196.5329
ARG_OF_PERICENTER = 115.9190
MEAN_ANOMALY   = 244.4512

EPHEMERIS_TYPE = 0
CLASSIFICATION_TYPE = U
NORAD_CAT_ID   = 54149
ELEMENT_SET_NO = 999
REV_AT_EPOCH   = 17045
BSTAR          = .32232169E-3
MEAN_MOTION_DOT = .3672E-4
MEAN_MOTION_DDOT = 0

CCSDS_OMM_VERS = 2.0
CREATION_DATE  = 
ORIGINATOR     = 

OBJECT_NAME    = XRISM
OBJECT_ID      = 2023-137A
CENTER_NAME    = EARTH
REF_FRAME      = TEME
TIME_SYSTEM    = UTC
MEAN_ELEMENT_THEORY = SGP/SGP4

EPOCH          = 2025-12-09T11:07:42.958560
MEAN_MOTION    = 15.10287393
ECCENTRICITY   = .00077047
INCLINATION    = 31.0005
RA_OF_ASC_NODE = 146.6949
ARG_OF_PERICENTER = 212.4251
MEAN_ANOMALY   = 147.5915

EPHEMERIS_TYPE = 0
CLASSIFICATION_TYPE = U
NORAD_CAT_ID   = 57800
ELEMENT_SET_NO = 999
REV_AT_EPOCH   = 12413
BSTAR          = .42644477E-3
MEAN_MOTION_DOT = .7258E-4
MEAN_MOTION_DDOT = 0

CCSDS_OMM_VERS = 2.0
CREATION_DATE  = 
ORIGINATOR     = 

OBJECT_NAME    = ACS3
OBJECT_ID      = 2024-077B
CENTER_NAME    = EARTH
REF_FRAME      = TEME
TIME_SYSTEM    = UTC
MEAN_ELEMENT_THEORY = SGP/SGP4

EPOCH          = 2025-12-09T10:21:39.575520
MEAN_MOTION    = 13.85223484
ECCENTRICITY   = .00779428
INCLINATION    = 97.2713
RA_OF_ASC_NODE = 299.7763
ARG_OF_PERICENTER = 345.8257
MEAN_ANOMALY   = 14.0717

EPHEMERIS_TYPE = 0
CLASSIFICATION_TYPE = U
NORAD_CAT_ID   = 59588
ELEMENT_SET_NO = 999
REV_AT_EPOCH   = 8168
BSTAR          = .21821136E-1
MEAN_MOTION_DOT = .2541E-3
MEAN_MOTION_DDOT = 0

CCSDS_OMM_VERS = 2.0
CREATION_DATE  = 
ORIGINATOR     = 

OBJECT_NAME    = SZ-21 MODULE
OBJECT_ID      = 2025-246C
CENTER_NAME    = EARTH
REF_FRAME      = TEME
TIME_SYSTEM    = UTC
MEAN_ELEMENT_THEORY = SGP/SGP4

EPOCH          = 2025-12-09T11:18:10.159488
MEAN_MOTION    = 15.62240002
ECCENTRICITY   = .0006286
INCLINATION    = 41.4772
RA_OF_ASC_NODE = 35.9831
ARG_OF_PERICENTER = 242.4237
MEAN_ANOMALY   = 117.5964

EPHEMERIS_TYPE = 0
CLASSIFICATION_TYPE = U
NORAD_CAT_ID   = 66515
ELEMENT_SET_NO = 999
REV_AT_EPOCH   = 393
BSTAR          = .35876146E-3
MEAN_MOTION_DOT = .32351E-3
MEAN_MOTION_DDOT = 0

